STARLINK-31640          
1 59748U 24090U   26068.32392241 -.00001083  00000+0 -29843-4 0  9999
2 59748  42.9976 185.5973 0001859 191.7433 168.3375 15.27571730103387
HAWK-11A                
1 62382U 24247F   26068.51231358  .00009457  00000+0  34106-3 0  9991
2 62382  44.9941 114.3328 0005466 327.3713  32.6832 15.28849427 67741
